[{"OBJECT_NAME":"HULIANWANG DIGUI-46","OBJECT_ID":"2025-162G","EPOCH":"2026-03-09T22:54:31.130208","MEAN_MOTION":13.29333315,"ECCENTRICITY":0.00010644,"INCLINATION":50.0051,"RA_OF_ASC_NODE":261.5612,"ARG_OF_PERICENTER":92.6971,"MEAN_ANOMALY":267.4023,"EPHEMERIS_TYPE":0,"CLASSIFICATION_TYPE":"U","NORAD_CAT_ID":65049,"ELEMENT_SET_NO":999,"REV_AT_EPOCH":3016,"BSTAR":0.00012627298,"MEAN_MOTION_DOT":-6.5e-7,"MEAN_MOTION_DDOT":0},{"OBJECT_NAME":"THORAD AGENA D DEB","OBJECT_ID":"1970-025HC","EPOCH":"2026-03-09T22:17:49.486272","MEAN_MOTION":13.40909265,"ECCENTRICITY":0.00795262,"INCLINATION":99.5913,"RA_OF_ASC_NODE":56.3136,"ARG_OF_PERICENTER":164.2789,"MEAN_ANOMALY":252.6049,"EPHEMERIS_TYPE":0,"CLASSIFICATION_TYPE":"U","NORAD_CAT_ID":4982,"ELEMENT_SET_NO":999,"REV_AT_EPOCH":73019,"BSTAR":0.00034919566,"MEAN_MOTION_DOT":1.55e-6,"MEAN_MOTION_DDOT":0}]
